GALAXY 25 (G-25)        
1 24812C 97026A   22108.00000000  .00000087  00000-0  00000-0 0  1081
2 24812   3.5424  84.1878 0005592 328.2190 219.8059  1.00272909    14
GALAXY 25 (G-25)        
1 24812C 97026A   22111.00000000  .00000087  00000-0  00000-0 0  1119
2 24812   3.5534  84.2118 0005801 331.3305 219.6238  1.00271328    11
GALAXY 25 (G-25)    [PM]
1 24812C 97026A   22111.71824074  .00000087  00000-0  00000-0 0  1112
2 24812   3.5546  84.2275 0006252 339.6463 110.5727  1.00269623    12
INTELSAT 5 (IS-5)       
1 24916C 97046A   22108.00000000  .00000143  00000-0  00000-0 0  1081
2 24916   7.1031  61.4546 0002766  65.6009 259.5997  1.00150879    17
INTELSAT 5 (IS-5)       
1 24916C 97046A   22111.00000000  .00000135  00000-0  00000-0 0  1110
2 24916   7.1106  61.4670 0003212  65.2217 261.6370  1.00151703    18
GALAXY 11 (G-11)        
1 26038C 99071A   22108.00000000 -.00000072  00000-0  00000-0 0  1080
2 26038   2.8469  88.4513 0000917  22.3086   2.2274  1.00271578    16
GALAXY 11 (G-11)        
1 26038C 99071A   22111.00000000 -.00000072  00000-0  00000-0 0  1118
2 26038   2.8575  88.4868 0000923  23.1593   4.3004  1.00271148    13
INTELSAT 9 (IS-9)   [PM]
1 26451C 00043A   22101.71986111 -.00000191  00000-0  00000-0 0  1012
2 26451   7.0706  61.6749 0002053   5.1365 342.2325  1.00273993    19
INTELSAT 9 (IS-9)       
1 26451C 00043A   22108.00000000 -.00000191  00000-0  00000-0 0  1082
2 26451   7.0884  61.6190 0005557 343.0040 111.4937  1.00268407    11
INTELSAT 9 (IS-9)       
1 26451C 00043A   22111.00000000 -.00000191  00000-0  00000-0 0  1110
2 26451   7.0959  61.6354 0005595 345.6759 111.7449  1.00266422    19
INTELSAT 1R (IS-1R)     
1 26608C 00072A   22108.00000000 -.00000047  00000-0  00000-0 0  1088
2 26608   4.3157  80.5784 0000936 357.9467 284.6976  1.00269746    13
INTELSAT 1R (IS-1R)     
1 26608C 00072A   22111.00000000 -.00000047  00000-0  00000-0 0  1116
2 26608   4.3278  80.6085 0000722 359.2394 286.3330  1.00269125    13
INTELSAT 10 (IS-10)     
1 26766C 01019A   22108.00000000  .00000127  00000-0  00000-0 0  1083
2 26766   5.4380  73.8229 0003051 326.6435 343.4278  1.00270647    17
INTELSAT 10 (IS-10) [PM]
1 26766C 01019A   22110.90123843  .00000127  00000-0  00000-0 0  1109
2 26766   5.4467  68.2949 0003673 320.0745 322.8483  1.00267850    13
INTELSAT 10 (IS-10)     
1 26766C 01019A   22111.00000000  .00000127  00000-0  00000-0 0  1111
2 26766   5.4473  73.8376 0003547 325.5260 347.5015  1.00267800    18
INTELSAT 901            
1 26824C 01024A   22108.00000000 -.00000128  00000-0  00000-0 0  1086
2 26824   0.0494  66.7679 0001138 339.6223 132.2186  1.00271075    10
INTELSAT 901            
1 26824C 01024A   22111.00000000 -.00000113  00000-0  00000-0 0  1118
2 26824   0.0429  74.4813 0001313 341.1013 125.9789  1.00270470    10
INTELSAT 902            
1 26900C 01039A   22108.00000000 -.00000192  00000-0  00000-0 0  1088
2 26900   2.2538  89.5230 0003815 318.2007 108.2808  1.00271296    10
INTELSAT 902            
1 26900C 01039A   22111.00000000 -.00000192  00000-0  00000-0 0  1116
2 26900   2.2652  89.5720 0003663 314.9792 114.4079  1.00271121    12
INTELSAT 902        [PM]
1 26900C 01039A   22115.87670139 -.00000192  00000-0  00000-0 0  1155
2 26900   2.2747  89.5744 0003146 317.9308  71.8543  1.00272920    15
INTELSAT 904            
1 27380C 02007A   22108.00000000 -.00000123  00000-0  00000-0 0  1081
2 27380   3.0873  86.4737 0003736 317.2774 132.8472  1.00271539    14
INTELSAT 904            
1 27380C 02007A   22111.00000000 -.00000123  00000-0  00000-0 0  1119
2 27380   3.0985  86.5051 0003833 321.8716 131.1744  1.00270273    11
INTELSAT 904        [PM]
1 27380C 02007A   22114.32598380 -.00000123  00000-0  00000-0 0  1143
2 27380   3.1051  83.8805 0003132 307.4902 268.8076  1.00272087    13
INTELSAT 905            
1 27438C 02027A   22108.00000000 -.00000094  00000-0  00000-0 0  1084
2 27438   2.9089  87.2283 0003163 310.7929 143.5887  1.00271024    12
INTELSAT 905            
1 27438C 02027A   22111.00000000 -.00000094  00000-0  00000-0 0  1112
2 27438   2.9199  87.2630 0003245 316.1632 141.1311  1.00269937    18
INTELSAT 905        [PM]
1 27438C 02027A   22113.85364583 -.00000094  00000-0  00000-0 0  1138
2 27438   2.9262  79.6322 0002879 304.1300 110.9127  1.00271348    11
GALAXY 3C (G-3C)        
1 27445C 02030A   22108.00000000 -.00000068  00000-0  00000-0 0  1087
2 27445   0.0442  28.2351 0001757 309.3839 133.4292  1.00269135    12
GALAXY 3C (G-3C)        
1 27445C 02030A   22111.08333333 -.00000063  00000-0  00000-0 0  1116
2 27445   0.0392  53.0429 0001824 278.9648 172.0753  1.00269009    13
INTELSAT 906            
1 27513C 02041A   22108.00000000  .00000105  00000-0  00000-0 0  1086
2 27513   1.9213  91.0355 0004943 309.4470 229.7635  1.00272410    18
INTELSAT 906            
1 27513C 02041A   22111.00000000  .00000105  00000-0  00000-0 0  1114
2 27513   1.9331  91.0851 0004733 311.2874 230.8333  1.00267660    15
INTELSAT 906        [PM]
1 27513C 02041A   22117.96701389  .00000105  00000-0  00000-0 0  1179
2 27513   1.9477  79.2601 0003668 308.5474 240.3765  1.00270556    11
GALAXY 12 (G-12)        
1 27715C 03013B   22108.00000000  .00000149  00000-0  00000-0 0  1088
2 27715   3.1208  86.0834 0002278 331.5238  19.4839  1.00272796    10
GALAXY 12 (G-12)        
1 27715C 03013B   22111.00000000  .00000149  00000-0  00000-0 0  1116
2 27715   3.1320  86.1123 0002309 335.2941  18.6393  1.00271004    11
GALAXY 12 (G-12)    [PM]
1 27715C 03013B   22115.57527778  .00000149  00000-0  00000-0 0  1152
2 27715   3.1402  86.1087 0002385 318.6494 246.8915  1.00270644    17
GALAXY 23 (G-23)        
1 27854C 03034A   22108.00000000  .00000103  00000-0  00000-0 0  1085
2 27854   0.0185 254.6682 0003148 135.7001  54.7321  1.00270285    16
GALAXY 23 (G-23)        
1 27854C 03034A   22111.00000000  .00000077  00000-0  00000-0 0  1113
2 27854   0.0082 236.5419 0003179 160.2183  51.2839  1.00270626    12
GALAXY 23 (G-23)    [PM]
1 27854C 03034A   22116.58299769  .00000103  00000-0  00000-0 0  1168
2 27854   0.0099 190.4779 0002937 211.3699 261.5737  1.00270925    13
GALAXY 13               
1 27954C 03044A   22108.00000000 -.00004032  00000-0  00000-0 0  1083
2 27954   0.0526  72.3747 0001438 343.6234  23.0791  1.00270236    17
GALAXY 13               
1 27954C 03044A   22111.00000000  .00000138  00000-0  00000-0 0  1113
2 27954   0.0530  89.1770 0001117 342.1610  10.6998  1.00286328    10
GALAXY 13           [PM]
1 27954C 03044A   22115.02987269  .00000120  00000-0  00000-0 0  1155
2 27954   0.0388  68.6030 0000742  87.9852 300.1889  1.00271318    16
INTELSAT 10-02          
1 28358C 04022A   22108.00000000 -.00003493  00000-0  00000-0 0  1089
2 28358   0.0024 262.3632 0001297 156.4292 146.3164  1.00270361    12
INTELSAT 10-02          
1 28358C 04022A   22111.00000000 -.00003877  00000-0  00000-0 0  1113
2 28358   0.0000 270.0010 0001241 156.9407 141.1190  1.00269920    15
GALAXY 28 (G-28)        
1 28702C 05022A   22108.00000000 -.00000095  00000-0  00000-0 0  1088
2 28702   0.0176 298.4791 0002631  99.8254  78.8049  1.00270750    13
GALAXY 28 (G-28)        
1 28702C 05022A   22111.00000000 -.00003571  00000-0  00000-0 0  1118
2 28702   0.0123 328.5091 0002530  79.7413  71.7977  1.00269702    12
GALAXY 28 (G-28)    [PM]
1 28702C 05022A   22111.46574074 -.00000097  00000-0  00000-0 0  1115
2 28702   0.0048 283.5691 0002736 109.7485 254.8547  1.00272401    12
GALAXY 14 (G-14)    [PM]
1 28790C 05030A   22107.60763889  .00000246  00000-0  00000-0 0  1076
2 28790   1.1076  92.5503 0001990 291.9111  72.9026  1.00269275    19
GALAXY 14 (G-14)        
1 28790C 05030A   22108.00000000  .00000246  00000-0  00000-0 0  1081
2 28790   1.1095  92.5418 0002098 293.4128 213.0439  1.00269634    15
GALAXY 14 (G-14)        
1 28790C 05030A   22111.00000000  .00000246  00000-0  00000-0 0  1119
2 28790   1.1212  92.6420 0002101 299.7722 209.5219  1.00270664    15
GALAXY 15 (G-15)        
1 28884C 05041A   22108.00000000 -.00003569  00000-0  00000-0 0  1089
2 28884   0.0526  63.3253 0001936 327.5542  42.2236  1.00270078    19
GALAXY 15 (G-15)        
1 28884C 05041A   22111.00000000 -.00003463  00000-0  00000-0 0  1110
2 28884   0.0016 130.3129 0001947 266.0443  39.6924  1.00272049    13
GALAXY 15 (G-15)    [PM]
1 28884C 05041A   22112.92450231  .00000179  00000-0  00000-0 0  1128
2 28884   0.0364  64.9466 0002132 336.6276   9.1970  1.00269357    11
GALAXY 16 (G-16)        
1 29236C 06023A   22108.00000000 -.00000037  00000-0  00000-0 0  1089
2 29236   0.0268 270.1052 0002852 124.5871  72.4064  1.00271537    12
GALAXY 16 (G-16)        
1 29236C 06023A   22111.00000000 -.00000037  00000-0  00000-0 0  1117
2 29236   0.0137 264.1958 0002935 138.0351  67.8221  1.00271201    11
GALAXY 16 (G-16)    [PM]
1 29236C 06023A   22114.45438657 -.00000037  00000-0  00000-0 0  1145
2 29236   0.0330 265.3714 0002999 145.2857 226.3641  1.00272128    17
GALAXY 17 (G-17)        
1 31307C 07016B   22108.00000000 -.00000087  00000-0  00000-0 0  1089
2 31307   0.0517  62.9574 0003219 328.0588  84.0853  1.00271675    19
GALAXY 17 (G-17)        
1 31307C 07016B   22111.00000000 -.00000092  00000-0  00000-0 0  1113
2 31307   0.0004 148.2067 0003274 247.5091  82.3273  1.00272203    15
GALAXY 17 (G-17)    [PM]
1 31307C 07016B   22115.97398148 -.00000101  00000-0  00000-0 0  1151
2 31307   0.0160  20.1683 0003114  23.9114  69.5037  1.00269170    19
INTELSAT 11 (IS-11)     
1 32253C 07044B   22108.00000000 -.00000188  00000-0  00000-0 0  1083
2 32253   0.0025 270.1737 0002060 131.4832 121.4539  1.00271428    12
INTELSAT 11 (IS-11)     
1 32253C 07044B   22111.00000000 -.00003662  00000-0  00000-0 0  1111
2 32253   0.0001 184.6140 0002077 221.0041 120.4466  1.00272391    17
